{
  "type": "FeatureCollection",
  "features": [
    {
      "type": "Feature",
      "properties": {
        "norad_id": 30646,
        "name": "FENGYUN 1C DEB",
        "group": "fengyun-1c-debris",
        "lat": 5.087115233264771,
        "lon": 17.717260716413364,
        "alt_km": 828.3363841912396,
        "timestamp": "2025-12-24T09:46:31.281833+00:00",
        "meta_object_name": "FENGYUN 1C DEB",
        "meta_object_id": "1999-025APD",
        "meta_epoch": "2025-12-24T01:14:02.224032",
        "meta_mean_motion": 14.09678304,
        "meta_eccentricity": 0.0047723,
        "meta_inclination": 98.6513,
        "meta_ra_of_asc_node": 18.1518,
        "meta_arg_of_pericenter": 0.0284,
        "meta_mean_anomaly": 0.0882,
        "meta_ephemeris_type": 0,
        "meta_classification_type": "U",
        "meta_norad_cat_id": 30646,
        "meta_element_set_no": 999,
        "meta_rev_at_epoch": 96764,
        "meta_bstar": 0.00066765,
        "meta_mean_motion_dot": 1.141e-05,
        "meta_mean_motion_ddot": 0,
        "tle_line1": "1 30646U 99025APD 25358.05141463  .00001141  00000+0  66765-3 0  9990",
        "tle_line2": "2 30646  98.6513  18.1518 0047723   0.0284   0.0882 14.09678304967646"
      },
      "geometry": {
        "type": "Point",
        "coordinates": [
          17.717260716413364,
          5.087115233264771
        ]
      }
    },
    {
      "type": "Feature",
      "properties": {
        "norad_id": 30647,
        "name": "FENGYUN 1C DEB",
        "group": "fengyun-1c-debris",
        "lat": -80.54545572640808,
        "lon": 3.288299227608534,
        "alt_km": 726.3870893918493,
        "timestamp": "2025-12-24T09:46:31.281844+00:00",
        "meta_object_name": "FENGYUN 1C DEB",
        "meta_object_id": "1999-025APE",
        "meta_epoch": "2025-12-23T06:51:20.222208",
        "meta_mean_motion": 14.56656699,
        "meta_eccentricity": 0.0029984,
        "meta_inclination": 98.9903,
        "meta_ra_of_asc_node": 290.1479,
        "meta_arg_of_pericenter": 140.6779,
        "meta_mean_anomaly": 13.44,
        "meta_ephemeris_type": 0,
        "meta_classification_type": "U",
        "meta_norad_cat_id": 30647,
        "meta_element_set_no": 999,
        "meta_rev_at_epoch": 98142,
        "meta_bstar": 0.0022642,
        "meta_mean_motion_dot": 0.00010126,
        "meta_mean_motion_ddot": 0,
        "tle_line1": "1 30647U 99025APE 25357.28565072  .00010126  00000+0  22642-2 0  9999",
        "tle_line2": "2 30647  98.9903 290.1479 0029984 140.6779  13.4400 14.56656699981421"
      },
      "geometry": {
        "type": "Point",
        "coordinates": [
          3.288299227608534,
          -80.54545572640808
        ]
      }
    },
    {
      "type": "Feature",
      "properties": {
        "norad_id": 30648,
        "name": "FENGYUN 1C DEB",
        "group": "fengyun-1c-debris",
        "lat": 66.86549254121222,
        "lon": 72.47375891799965,
        "alt_km": 702.8820203133237,
        "timestamp": "2025-12-24T09:46:31.281854+00:00",
        "meta_object_name": "FENGYUN 1C DEB",
        "meta_object_id": "1999-025APF",
        "meta_epoch": "2025-12-22T06:19:48.081216",
        "meta_mean_motion": 14.4825088,
        "meta_eccentricity": 0.00337664,
        "meta_inclination": 98.6411,
        "meta_ra_of_asc_node": 91.1327,
        "meta_arg_of_pericenter": 99.5986,
        "meta_mean_anomaly": 319.5469,
        "meta_ephemeris_type": 0,
        "meta_classification_type": "U",
        "meta_norad_cat_id": 30648,
        "meta_element_set_no": 999,
        "meta_rev_at_epoch": 98004,
        "meta_bstar": 0.0020874209,
        "meta_mean_motion_dot": 7.809e-05,
        "meta_mean_motion_ddot": 0,
        "tle_line1": "1 30648U 99025APF 25356.26375094  .00007809  00000+0  20874-2 0  9999",
        "tle_line2": "2 30648  98.6411  91.1327 0033766  99.5986 319.5469 14.48250880980044"
      },
      "geometry": {
        "type": "Point",
        "coordinates": [
          72.47375891799965,
          66.86549254121222
        ]
      }
    },
    {
      "type": "Feature",
      "properties": {
        "norad_id": 30649,
        "name": "FENGYUN 1C DEB",
        "group": "fengyun-1c-debris",
        "lat": 21.093307463986807,
        "lon": -82.7232230464942,
        "alt_km": 758.4654050246372,
        "timestamp": "2025-12-24T09:46:31.281864+00:00",
        "meta_object_name": "FENGYUN 1C DEB",
        "meta_object_id": "1999-025APG",
        "meta_epoch": "2025-12-22T05:15:24.732864",
        "meta_mean_motion": 14.29607893,
        "meta_eccentricity": 0.00510647,
        "meta_inclination": 98.8095,
        "meta_ra_of_asc_node": 91.6349,
        "meta_arg_of_pericenter": 144.5139,
        "meta_mean_anomaly": 277.9996,
        "meta_ephemeris_type": 0,
        "meta_classification_type": "U",
        "meta_norad_cat_id": 30649,
        "meta_element_set_no": 999,
        "meta_rev_at_epoch": 97199,
        "meta_bstar": 0.0017348643,
        "meta_mean_motion_dot": 4.462e-05,
        "meta_mean_motion_ddot": 0,
        "tle_line1": "1 30649U 99025APG 25356.21903626  .00004462  00000+0  17349-2 0  9998",
        "tle_line2": "2 30649  98.8095  91.6349 0051064 144.5139 277.9996 14.29607893971991"
      },
      "geometry": {
        "type": "Point",
        "coordinates": [
          -82.7232230464942,
          21.093307463986807
        ]
      }
    },
    {
      "type": "Feature",
      "properties": {
        "norad_id": 30650,
        "name": "FENGYUN 1C DEB",
        "group": "fengyun-1c-debris",
        "lat": -41.881751516398374,
        "lon": -149.0201401123162,
        "alt_km": 829.8866109189757,
        "timestamp": "2025-12-24T09:46:31.281875+00:00",
        "meta_object_name": "FENGYUN 1C DEB",
        "meta_object_id": "1999-025APH",
        "meta_epoch": "2025-12-23T02:17:31.822080",
        "meta_mean_motion": 14.13990408,
        "meta_eccentricity": 0.00722345,
        "meta_inclination": 99.2032,
        "meta_ra_of_asc_node": 37.9886,
        "meta_arg_of_pericenter": 161.1508,
        "meta_mean_anomaly": 226.6955,
        "meta_ephemeris_type": 0,
        "meta_classification_type": "U",
        "meta_norad_cat_id": 30650,
        "meta_element_set_no": 999,
        "meta_rev_at_epoch": 96445,
        "meta_bstar": 0.0014154524,
        "meta_mean_motion_dot": 2.711e-05,
        "meta_mean_motion_ddot": 0,
        "tle_line1": "1 30650U 99025APH 25357.09550720  .00002711  00000+0  14155-2 0  9997",
        "tle_line2": "2 30650  99.2032  37.9886 0072234 161.1508 226.6955 14.13990408964454"
      },
      "geometry": {
        "type": "Point",
        "coordinates": [
          -149.0201401123162,
          -41.881751516398374
        ]
      }
    },
    {
      "type": "Feature",
      "properties": {
        "norad_id": 30652,
        "name": "FENGYUN 1C DEB",
        "group": "fengyun-1c-debris",
        "lat": 24.974503801936265,
        "lon": 27.092704936360512,
        "alt_km": 871.1318912281131,
        "timestamp": "2025-12-24T09:46:31.281885+00:00",
        "meta_object_name": "FENGYUN 1C DEB",
        "meta_object_id": "1999-025APJ",
        "meta_epoch": "2025-12-24T01:23:01.182048",
        "meta_mean_motion": 14.07808577,
        "meta_eccentricity": 0.00076,
        "meta_inclination": 98.7839,
        "meta_ra_of_asc_node": 30.8824,
        "meta_arg_of_pericenter": 229.7223,
        "meta_mean_anomaly": 184.5363,
        "meta_ephemeris_type": 0,
        "meta_classification_type": "U",
        "meta_norad_cat_id": 30652,
        "meta_element_set_no": 999,
        "meta_rev_at_epoch": 96853,
        "meta_bstar": 7.1526e-05,
        "meta_mean_motion_dot": 7.8e-07,
        "meta_mean_motion_ddot": 0,
        "tle_line1": "1 30652U 99025APJ 25358.05765257  .00000078  00000+0  71526-4 0  9990",
        "tle_line2": "2 30652  98.7839  30.8824 0007600 229.7223 184.5363 14.07808577968535"
      },
      "geometry": {
        "type": "Point",
        "coordinates": [
          27.092704936360512,
          24.974503801936265
        ]
      }
    },
    {
      "type": "Feature",
      "properties": {
        "norad_id": 30654,
        "name": "FENGYUN 1C DEB",
        "group": "fengyun-1c-debris",
        "lat": 61.36386498521466,
        "lon": -95.24872727988911,
        "alt_km": 803.175882413113,
        "timestamp": "2025-12-24T09:46:31.281896+00:00",
        "meta_object_name": "FENGYUN 1C DEB",
        "meta_object_id": "1999-025APL",
        "meta_epoch": "2025-12-22T06:38:50.417088",
        "meta_mean_motion": 14.17136613,
        "meta_eccentricity": 0.00358095,
        "meta_inclination": 99.2429,
        "meta_ra_of_asc_node": 279.8885,
        "meta_arg_of_pericenter": 70.2851,
        "meta_mean_anomaly": 290.218,
        "meta_ephemeris_type": 0,
        "meta_classification_type": "U",
        "meta_norad_cat_id": 30654,
        "meta_element_set_no": 999,
        "meta_rev_at_epoch": 96815,
        "meta_bstar": 0.0010659496,
        "meta_mean_motion_dot": 2.114e-05,
        "meta_mean_motion_ddot": 0,
        "tle_line1": "1 30654U 99025APL 25356.27697242  .00002114  00000+0  10659-2 0  9993",
        "tle_line2": "2 30654  99.2429 279.8885 0035809  70.2851 290.2180 14.17136613968154"
      },
      "geometry": {
        "type": "Point",
        "coordinates": [
          -95.24872727988911,
          61.36386498521466
        ]
      }
    }
  ]
}